CSS (TIANHE)            
1 48274U 21035A   24170.44445493  .00034354  00000+0  38324-3 0  9998
2 48274  41.4686  75.4539 0004321 244.1012 115.9382 15.62077157179291
